{
  "norad_id": 60452,
  "name": "LEGION 3",
  "history": [
    {
      "epoch": "2026-03-28T22:05:59.839872",
      "apogee_km": 525.1139670760467,
      "perigee_km": 514.7399686747603,
      "latitude_deg": 8.77509958439166,
      "longitude_deg": -46.400177920237184,
      "semi_major_axis_km": 6898.063967875403,
      "eccentricity": 0.00075195,
      "inclination_deg": 45.0009,
      "raan_deg": 100.8058,
      "arg_perigee_deg": 66.3919,
      "mean_anomaly_deg": 293.7748,
      "mean_motion_rev_day": 15.1534645
    },
    {
      "epoch": "2026-03-29T04:25:42.763872",
      "apogee_km": 525.0849225579077,
      "perigee_km": 514.7419857069808,
      "latitude_deg": -43.02964390613615,
      "longitude_deg": -21.085817920044065,
      "semi_major_axis_km": 6898.0504541324435,
      "eccentricity": 0.0007497,
      "inclination_deg": 45.0008,
      "raan_deg": 99.3931,
      "arg_perigee_deg": 68.1844,
      "mean_anomaly_deg": 291.9831,
      "mean_motion_rev_day": 15.15350903
    }
  ]
}